CCSDS_OMM_VERS = 2.0
CREATION_DATE  = 
ORIGINATOR     = 

OBJECT_NAME    = STARLINK-36746
OBJECT_ID      = 2026-026N
CENTER_NAME    = EARTH
REF_FRAME      = TEME
TIME_SYSTEM    = UTC
MEAN_ELEMENT_THEORY = SGP/SGP4

EPOCH          = 2026-02-24T14:00:04.000032
MEAN_MOTION    = 15.81205193
ECCENTRICITY   = .0001052
INCLINATION    = 97.2726
RA_OF_ASC_NODE = 109.5791
ARG_OF_PERICENTER = 104.5127
MEAN_ANOMALY   = 329.7950

EPHEMERIS_TYPE = 0
CLASSIFICATION_TYPE = U
NORAD_CAT_ID   = 67733
ELEMENT_SET_NO = 999
REV_AT_EPOCH   = 320
BSTAR          = -.29844745E-2
MEAN_MOTION_DOT = -.547088E-2
MEAN_MOTION_DDOT = 0

CCSDS_OMM_VERS = 2.0
CREATION_DATE  = 
ORIGINATOR     = 

OBJECT_NAME    = STARLINK-36749
OBJECT_ID      = 2026-026P
CENTER_NAME    = EARTH
REF_FRAME      = TEME
TIME_SYSTEM    = UTC
MEAN_ELEMENT_THEORY = SGP/SGP4

EPOCH          = 2026-02-24T14:00:04.000032
MEAN_MOTION    = 15.81534747
ECCENTRICITY   = .00011461
INCLINATION    = 97.2723
RA_OF_ASC_NODE = 109.5823
ARG_OF_PERICENTER = 87.8820
MEAN_ANOMALY   = 353.3177

EPHEMERIS_TYPE = 0
CLASSIFICATION_TYPE = U
NORAD_CAT_ID   = 67734
ELEMENT_SET_NO = 999
REV_AT_EPOCH   = 320
BSTAR          = -.50577358E-2
MEAN_MOTION_DOT = -.903708E-2
MEAN_MOTION_DDOT = 0

CCSDS_OMM_VERS = 2.0
CREATION_DATE  = 
ORIGINATOR     = 

OBJECT_NAME    = STARLINK-36691
OBJECT_ID      = 2026-026Q
CENTER_NAME    = EARTH
REF_FRAME      = TEME
TIME_SYSTEM    = UTC
MEAN_ELEMENT_THEORY = SGP/SGP4

EPOCH          = 2026-02-24T14:00:04.000032
MEAN_MOTION    = 15.82478838
ECCENTRICITY   = .00016775
INCLINATION    = 97.2713
RA_OF_ASC_NODE = 109.5892
ARG_OF_PERICENTER = 88.4288
MEAN_ANOMALY   = 11.3487

EPHEMERIS_TYPE = 0
CLASSIFICATION_TYPE = U
NORAD_CAT_ID   = 67735
ELEMENT_SET_NO = 999
REV_AT_EPOCH   = 334
BSTAR          = -.93412667E-2
MEAN_MOTION_DOT = -.1680363E-1
MEAN_MOTION_DDOT = 0

CCSDS_OMM_VERS = 2.0
CREATION_DATE  = 
ORIGINATOR     = 

OBJECT_NAME    = STARLINK-36317
OBJECT_ID      = 2026-026R
CENTER_NAME    = EARTH
REF_FRAME      = TEME
TIME_SYSTEM    = UTC
MEAN_ELEMENT_THEORY = SGP/SGP4

EPOCH          = 2026-02-24T14:00:04.000032
MEAN_MOTION    = 15.82032821
ECCENTRICITY   = .00012939
INCLINATION    = 97.2715
RA_OF_ASC_NODE = 109.5855
ARG_OF_PERICENTER = 78.1130
MEAN_ANOMALY   = 12.6590

EPHEMERIS_TYPE = 0
CLASSIFICATION_TYPE = U
NORAD_CAT_ID   = 67736
ELEMENT_SET_NO = 999
REV_AT_EPOCH   = 320
BSTAR          = -.76336936E-2
MEAN_MOTION_DOT = -.1355025E-1
MEAN_MOTION_DDOT = 0

CCSDS_OMM_VERS = 2.0
CREATION_DATE  = 
ORIGINATOR     = 

OBJECT_NAME    = STARLINK-36330
OBJECT_ID      = 2026-026S
CENTER_NAME    = EARTH
REF_FRAME      = TEME
TIME_SYSTEM    = UTC
MEAN_ELEMENT_THEORY = SGP/SGP4

EPOCH          = 2026-02-24T14:00:04.000032
MEAN_MOTION    = 15.82671245
ECCENTRICITY   = .00018531
INCLINATION    = 97.2710
RA_OF_ASC_NODE = 109.5922
ARG_OF_PERICENTER = 77.5692
MEAN_ANOMALY   = 28.1088

EPHEMERIS_TYPE = 0
CLASSIFICATION_TYPE = U
NORAD_CAT_ID   = 67737
ELEMENT_SET_NO = 999
REV_AT_EPOCH   = 320
BSTAR          = -.89887494E-2
MEAN_MOTION_DOT = -.1638178E-1
MEAN_MOTION_DDOT = 0

CCSDS_OMM_VERS = 2.0
CREATION_DATE  = 
ORIGINATOR     = 

OBJECT_NAME    = STARLINK-36327
OBJECT_ID      = 2026-026T
CENTER_NAME    = EARTH
REF_FRAME      = TEME
TIME_SYSTEM    = UTC
MEAN_ELEMENT_THEORY = SGP/SGP4

EPOCH          = 2026-02-24T14:00:04.000032
MEAN_MOTION    = 15.82918233
ECCENTRICITY   = .00014497
INCLINATION    = 97.2707
RA_OF_ASC_NODE = 109.5954
ARG_OF_PERICENTER = 85.9214
MEAN_ANOMALY   = 27.2543

EPHEMERIS_TYPE = 0
CLASSIFICATION_TYPE = U
NORAD_CAT_ID   = 67738
ELEMENT_SET_NO = 999
REV_AT_EPOCH   = 320
BSTAR          = -.87993686E-2
MEAN_MOTION_DOT = -.1624137E-1
MEAN_MOTION_DDOT = 0

CCSDS_OMM_VERS = 2.0
CREATION_DATE  = 
ORIGINATOR     = 

OBJECT_NAME    = STARLINK-36329
OBJECT_ID      = 2026-026U
CENTER_NAME    = EARTH
REF_FRAME      = TEME
TIME_SYSTEM    = UTC
MEAN_ELEMENT_THEORY = SGP/SGP4

EPOCH          = 2026-02-24T14:00:04.000032
MEAN_MOTION    = 15.84489385
ECCENTRICITY   = .00016258
INCLINATION    = 97.2676
RA_OF_ASC_NODE = 109.6114
ARG_OF_PERICENTER = 85.8022
MEAN_ANOMALY   = 71.3031

EPHEMERIS_TYPE = 0
CLASSIFICATION_TYPE = U
NORAD_CAT_ID   = 67739
ELEMENT_SET_NO = 999
REV_AT_EPOCH   = 320
BSTAR          = -.84463396E-2
MEAN_MOTION_DOT = -.1673E-1
MEAN_MOTION_DDOT = 0

CCSDS_OMM_VERS = 2.0
CREATION_DATE  = 
ORIGINATOR     = 

OBJECT_NAME    = STARLINK-36737
OBJECT_ID      = 2026-026V
CENTER_NAME    = EARTH
REF_FRAME      = TEME
TIME_SYSTEM    = UTC
MEAN_ELEMENT_THEORY = SGP/SGP4

EPOCH          = 2026-02-24T14:00:04.000032
MEAN_MOTION    = 15.83237866
ECCENTRICITY   = .00016518
INCLINATION    = 97.2696
RA_OF_ASC_NODE = 109.5972
ARG_OF_PERICENTER = 84.0351
MEAN_ANOMALY   = 37.2807

EPHEMERIS_TYPE = 0
CLASSIFICATION_TYPE = U
NORAD_CAT_ID   = 67740
ELEMENT_SET_NO = 999
REV_AT_EPOCH   = 320
BSTAR          = -.90960595E-2
MEAN_MOTION_DOT = -.1693907E-1
MEAN_MOTION_DDOT = 0

CCSDS_OMM_VERS = 2.0
CREATION_DATE  = 
ORIGINATOR     = 

OBJECT_NAME    = STARLINK-36740
OBJECT_ID      = 2026-026W
CENTER_NAME    = EARTH
REF_FRAME      = TEME
TIME_SYSTEM    = UTC
MEAN_ELEMENT_THEORY = SGP/SGP4

EPOCH          = 2026-02-24T14:00:04.000032
MEAN_MOTION    = 15.84158539
ECCENTRICITY   = .00016419
INCLINATION    = 97.2686
RA_OF_ASC_NODE = 109.6085
ARG_OF_PERICENTER = 95.2297
MEAN_ANOMALY   = 52.5631

EPHEMERIS_TYPE = 0
CLASSIFICATION_TYPE = U
NORAD_CAT_ID   = 67741
ELEMENT_SET_NO = 999
REV_AT_EPOCH   = 320
BSTAR          = -.85891072E-2
MEAN_MOTION_DOT = -.1674297E-1
MEAN_MOTION_DDOT = 0

CCSDS_OMM_VERS = 2.0
CREATION_DATE  = 
ORIGINATOR     = 

OBJECT_NAME    = STARLINK-36693
OBJECT_ID      = 2026-026X
CENTER_NAME    = EARTH
REF_FRAME      = TEME
TIME_SYSTEM    = UTC
MEAN_ELEMENT_THEORY = SGP/SGP4

EPOCH          = 2026-02-24T14:00:04.000032
MEAN_MOTION    = 15.83447136
ECCENTRICITY   = .00014782
INCLINATION    = 97.2695
RA_OF_ASC_NODE = 109.6004
ARG_OF_PERICENTER = 95.1721
MEAN_ANOMALY   = 32.2847

EPHEMERIS_TYPE = 0
CLASSIFICATION_TYPE = U
NORAD_CAT_ID   = 67742
ELEMENT_SET_NO = 999
REV_AT_EPOCH   = 334
BSTAR          = -.89416241E-2
MEAN_MOTION_DOT = -.168325E-1
MEAN_MOTION_DDOT = 0

CCSDS_OMM_VERS = 2.0
CREATION_DATE  = 
ORIGINATOR     = 

OBJECT_NAME    = STARLINK-36717
OBJECT_ID      = 2026-026Y
CENTER_NAME    = EARTH
REF_FRAME      = TEME
TIME_SYSTEM    = UTC
MEAN_ELEMENT_THEORY = SGP/SGP4

EPOCH          = 2026-02-24T14:00:04.000032
MEAN_MOTION    = 15.83949759
ECCENTRICITY   = .00016712
INCLINATION    = 97.2680
RA_OF_ASC_NODE = 109.6053
ARG_OF_PERICENTER = 82.7325
MEAN_ANOMALY   = 59.0634

EPHEMERIS_TYPE = 0
CLASSIFICATION_TYPE = U
NORAD_CAT_ID   = 67743
ELEMENT_SET_NO = 999
REV_AT_EPOCH   = 334
BSTAR          = -.87079847E-2
MEAN_MOTION_DOT = -.1679782E-1
MEAN_MOTION_DDOT = 0

CCSDS_OMM_VERS = 2.0
CREATION_DATE  = 
ORIGINATOR     = 

OBJECT_NAME    = STARLINK-36692
OBJECT_ID      = 2026-026Z
CENTER_NAME    = EARTH
REF_FRAME      = TEME
TIME_SYSTEM    = UTC
MEAN_ELEMENT_THEORY = SGP/SGP4

EPOCH          = 2026-02-24T14:00:04.000032
MEAN_MOTION    = 15.83721231
ECCENTRICITY   = .00018124
INCLINATION    = 97.2691
RA_OF_ASC_NODE = 109.6029
ARG_OF_PERICENTER = 85.4775
MEAN_ANOMALY   = 49.6555

EPHEMERIS_TYPE = 0
CLASSIFICATION_TYPE = U
NORAD_CAT_ID   = 67744
ELEMENT_SET_NO = 999
REV_AT_EPOCH   = 320
BSTAR          = -.88407299E-2
MEAN_MOTION_DOT = -.1686064E-1
MEAN_MOTION_DDOT = 0

