STARLINK-36746          
1 67733U 26026N   26055.58337963 -.00547088  00000+0 -29845-2 0  9997
2 67733  97.2726 109.5791 0001052 104.5127 329.7950 15.81205193  3206
STARLINK-36749          
1 67734U 26026P   26055.58337963 -.00903708  00000+0 -50577-2 0  9999
2 67734  97.2723 109.5823 0001146  87.8820 353.3177 15.81534747  3201
STARLINK-36691          
1 67735U 26026Q   26055.58337963 -.01680363  00000+0 -93413-2 0  9996
2 67735  97.2713 109.5892 0001677  88.4288  11.3487 15.82478838  3340
STARLINK-36317          
1 67736U 26026R   26055.58337963 -.01355025  00000+0 -76337-2 0  9997
2 67736  97.2715 109.5855 0001293  78.1130  12.6590 15.82032821  3200
STARLINK-36330          
1 67737U 26026S   26055.58337963 -.01638178  00000+0 -89887-2 0  9995
2 67737  97.2710 109.5922 0001853  77.5692  28.1088 15.82671245  3202
STARLINK-36327          
1 67738U 26026T   26055.58337963 -.01624137  00000+0 -87994-2 0  9993
2 67738  97.2707 109.5954 0001449  85.9214  27.2543 15.82918233  3205
STARLINK-36329          
1 67739U 26026U   26055.58337963 -.01673000  00000+0 -84463-2 0  9995
2 67739  97.2676 109.6114 0001625  85.8022  71.3031 15.84489385  3207
STARLINK-36737          
1 67740U 26026V   26055.58337963 -.01693907  00000+0 -90961-2 0  9995
2 67740  97.2696 109.5972 0001651  84.0351  37.2807 15.83237866  3203
STARLINK-36740          
1 67741U 26026W   26055.58337963 -.01674297  00000+0 -85891-2 0  9993
2 67741  97.2686 109.6085 0001641  95.2297  52.5631 15.84158539  3206
STARLINK-36693          
1 67742U 26026X   26055.58337963 -.01683250  00000+0 -89416-2 0  9990
2 67742  97.2695 109.6004 0001478  95.1721  32.2847 15.83447136  3349
STARLINK-36717          
1 67743U 26026Y   26055.58337963 -.01679782  00000+0 -87080-2 0  9991
2 67743  97.2680 109.6053 0001671  82.7325  59.0634 15.83949759  3344
STARLINK-36692          
1 67744U 26026Z   26055.58337963 -.01686064  00000+0 -88407-2 0  9997
2 67744  97.2691 109.6029 0001812  85.4775  49.6555 15.83721231  3201
